start=new Date('2022-09-25T00:00:00.000Z').valueOf();
sats=[{"RA_OF_ASC_NODE":"229.9055","EPHEMERIS_TYPE":"0","RCS_SIZE":null,"NORAD_CAT_ID":"53847","GP_ID":"213407618","INCLINATION":"53.2176","COUNTRY_CODE":"US","ELEMENT_SET_NO":"999","OBJECT_ID":"2022-114AF","APOAPSIS":"328.920","MEAN_MOTION_DDOT":"0.0000000000000","REF_FRAME":"TEME","DECAY_DATE":null,"TIME_SYSTEM":"UTC","SEMIMAJOR_AXIS":"6694.474","TLE_LINE2":"2 53847  53.2176 229.9055 0018793  54.6226 341.7534 15.84995495  1308","FILE":"3582616","ECCENTRICITY":"0.00187930","MEAN_MOTION_DOT":"-0.01161168","REV_AT_EPOCH":"130","CLASSIFICATION_TYPE":"U","BSTAR":"-0.00540600000000","OBJECT_TYPE":"PAYLOAD","MEAN_MOTION":"15.84995495","LAUNCH_DATE":"2022-09-19","OBJECT_NAME":"STARLINK-4777","TLE_LINE1":"1 53847U 22114AF  22267.91667824 -.01161168  00000-0 -54060-2 0  9992","EPOCH":"2022-09-24T22:00:00.999936","MEAN_ANOMALY":"341.7534","PERIOD":"90.852","MEAN_ELEMENT_THEORY":"SGP4","CENTER_NAME":"EARTH","ARG_OF_PERICENTER":"54.6226","PERIAPSIS":"303.758","SITE":"AFETR"},{"RA_OF_ASC_NODE":"229.9028","NORAD_CAT_ID":"53848","GP_ID":"213408184","EPHEMERIS_TYPE":"0","RCS_SIZE":null,"OBJECT_ID":"2022-114AG","ELEMENT_SET_NO":"999","MEAN_MOTION_DDOT":"0.0000000000000","APOAPSIS":"328.103","INCLINATION":"53.2176","COUNTRY_CODE":"US","DECAY_DATE":null,"REF_FRAME":"TEME","FILE":"3582616","TLE_LINE2":"2 53848  53.2176 229.9028 0017939  53.6416 344.2840 15.85082524  1309","ECCENTRICITY":"0.00179390","TIME_SYSTEM":"UTC","SEMIMAJOR_AXIS":"6694.229","MEAN_MOTION_DOT":"-0.01160344","REV_AT_EPOCH":"130","LAUNCH_DATE":"2022-09-19","OBJECT_NAME":"STARLINK-4780","EPOCH":"2022-09-24T22:00:00.999936","TLE_LINE1":"1 53848U 22114AG  22267.91667824 -.01160344  00000-0 -53877-2 0  9993","CLASSIFICATION_TYPE":"U","BSTAR":"-0.00538770000000","OBJECT_TYPE":"PAYLOAD","MEAN_MOTION":"15.85082524","SITE":"AFETR","PERIOD":"90.847","MEAN_ELEMENT_THEORY":"SGP4","MEAN_ANOMALY":"344.2840","CENTER_NAME":"EARTH","ARG_OF_PERICENTER":"53.6416","PERIAPSIS":"304.086"},{"ECCENTRICITY":"0.00189930","FILE":"3582616","TLE_LINE2":"2 53849  53.2176 229.9043 0018993  55.9168 341.0710 15.85031003  1304","SEMIMAJOR_AXIS":"6694.374","TIME_SYSTEM":"UTC","REV_AT_EPOCH":"130","MEAN_MOTION_DOT":"-0.01161322","EPOCH":"2022-09-24T22:00:00.999936","TLE_LINE1":"1 53849U 22114AH  22267.91667824 -.01161322  00000-0 -53952-2 0  9995","OBJECT_NAME":"STARLINK-4770","LAUNCH_DATE":"2022-09-19","MEAN_MOTION":"15.85031003","OBJECT_TYPE":"PAYLOAD","BSTAR":"-0.00539520000000","CLASSIFICATION_TYPE":"U","SITE":"AFETR","PERIAPSIS":"303.525","PERIOD":"90.850","CENTER_NAME":"EARTH","ARG_OF_PERICENTER":"55.9168","MEAN_ELEMENT_THEORY":"SGP4","MEAN_ANOMALY":"341.0710","RA_OF_ASC_NODE":"229.9043","GP_ID":"213407039","NORAD_CAT_ID":"53849","RCS_SIZE":null,"EPHEMERIS_TYPE":"0","MEAN_MOTION_DDOT":"0.0000000000000","APOAPSIS":"328.954","OBJECT_ID":"2022-114AH","ELEMENT_SET_NO":"999","COUNTRY_CODE":"US","INCLINATION":"53.2176","REF_FRAME":"TEME","DECAY_DATE":null},{"CENTER_NAME":"EARTH","PERIOD":"90.844","MEAN_ELEMENT_THEORY":"SGP4","MEAN_ANOMALY":"344.1121","ARG_OF_PERICENTER":"54.7367","PERIAPSIS":"302.919","SITE":"AFETR","CLASSIFICATION_TYPE":"U","BSTAR":"-0.00535760000000","OBJECT_TYPE":"PAYLOAD","MEAN_MOTION":"15.85134534","LAUNCH_DATE":"2022-09-19","OBJECT_NAME":"STARLINK-4767","EPOCH":"2022-09-24T22:00:00.999936","TLE_LINE1":"1 53850U 22114AJ  22267.91667824 -.01160364  00000-0 -53576-2 0  9994","MEAN_MOTION_DOT":"-0.01160364","REV_AT_EPOCH":"130","TIME_SYSTEM":"UTC","SEMIMAJOR_AXIS":"6694.083","TLE_LINE2":"2 53850  53.2176 229.9010 0019463  54.7367 344.1121 15.85134534  1304","FILE":"3582616","ECCENTRICITY":"0.00194630","DECAY_DATE":null,"REF_FRAME":"TEME","INCLINATION":"53.2176","COUNTRY_CODE":"US","ELEMENT_SET_NO":"999","OBJECT_ID":"2022-114AJ","MEAN_MOTION_DDOT":"0.0000000000000","APOAPSIS":"328.977","EPHEMERIS_TYPE":"0","RCS_SIZE":null,"NORAD_CAT_ID":"53850","GP_ID":"213407783","RA_OF_ASC_NODE":"229.9010"},{"RA_OF_ASC_NODE":"229.9032","EPHEMERIS_TYPE":"0","RCS_SIZE":null,"GP_ID":"213407203","NORAD_CAT_ID":"53851","COUNTRY_CODE":"US","INCLINATION":"53.2176","MEAN_MOTION_DDOT":"0.0000000000000","APOAPSIS":"328.671","ELEMENT_SET_NO":"999","OBJECT_ID":"2022-114AK","REF_FRAME":"TEME","DECAY_DATE":null,"TIME_SYSTEM":"UTC","SEMIMAJOR_AXIS":"6694.280","ECCENTRICITY":"0.00187120","FILE":"3582616","TLE_LINE2":"2 53851  53.2176 229.9032 0018712  55.0687 342.5565 15.85064611  1306","MEAN_MOTION_DOT":"-0.01160856","REV_AT_EPOCH":"130","OBJECT_TYPE":"PAYLOAD","MEAN_MOTION":"15.85064611","CLASSIFICATION_TYPE":"U","BSTAR":"-0.00538690000000","OBJECT_NAME":"STARLINK-4755","TLE_LINE1":"1 53851U 22114AK  22267.91667824 -.01160856  00000-0 -53869-2 0  9996","EPOCH":"2022-09-24T22:00:00.999936","LAUNCH_DATE":"2022-09-19","PERIAPSIS":"303.618","PERIOD":"90.848","MEAN_ANOMALY":"342.5565","CENTER_NAME":"EARTH","MEAN_ELEMENT_THEORY":"SGP4","ARG_OF_PERICENTER":"55.0687","SITE":"AFETR"},{"REF_FRAME":"TEME","DECAY_DATE":null,"COUNTRY_CODE":"US","INCLINATION":"53.2176","APOAPSIS":"328.815","MEAN_MOTION_DDOT":"0.0000000000000","OBJECT_ID":"2022-114AL","ELEMENT_SET_NO":"999","EPHEMERIS_TYPE":"0","RCS_SIZE":null,"GP_ID":"213407946","NORAD_CAT_ID":"53852","RA_OF_ASC_NODE":"229.8998","PERIAPSIS":"302.885","PERIOD":"90.842","CENTER_NAME":"EARTH","MEAN_ELEMENT_THEORY":"SGP4","ARG_OF_PERICENTER":"54.9301","MEAN_ANOMALY":"344.5353","SITE":"AFETR","OBJECT_TYPE":"PAYLOAD","MEAN_MOTION":"15.85169238","CLASSIFICATION_TYPE":"U","BSTAR":"-0.00534870000000","OBJECT_NAME":"STARLINK-4797","EPOCH":"2022-09-24T22:00:00.999936","TLE_LINE1":"1 53852U 22114AL  22267.91667824 -.01160211  00000-0 -53487-2 0  9998","LAUNCH_DATE":"2022-09-19","MEAN_MOTION_DOT":"-0.01160211","REV_AT_EPOCH":"130","TIME_SYSTEM":"UTC","SEMIMAJOR_AXIS":"6693.985","ECCENTRICITY":"0.00193680","FILE":"3582616","TLE_LINE2":"2 53852  53.2176 229.8998 0019368  54.9301 344.5353 15.85169238  1304"},{"TLE_LINE1":"1 53853U 22114AM  22267.91667824 -.01160415  00000-0 -53804-2 0  9998","EPOCH":"2022-09-24T22:00:00.999936","OBJECT_NAME":"STARLINK-4794","LAUNCH_DATE":"2022-09-19","MEAN_MOTION":"15.85101111","OBJECT_TYPE":"PAYLOAD","BSTAR":"-0.00538040000000","CLASSIFICATION_TYPE":"U","SITE":"AFETR","PERIAPSIS":"303.859","MEAN_ELEMENT_THEORY":"SGP4","PERIOD":"90.846","MEAN_ANOMALY":"343.9353","ARG_OF_PERICENTER":"54.2798","CENTER_NAME":"EARTH","ECCENTRICITY":"0.00182000","FILE":"3582616","TLE_LINE2":"2 53853  53.2176 229.9019 0018200  54.2798 343.9353 15.85101111  1306","SEMIMAJOR_AXIS":"6694.177","TIME_SYSTEM":"UTC","REV_AT_EPOCH":"130","MEAN_MOTION_DOT":"-0.01160415","MEAN_MOTION_DDOT":"0.0000000000000","APOAPSIS":"328.225","OBJECT_ID":"2022-114AM","ELEMENT_SET_NO":"999","COUNTRY_CODE":"US","INCLINATION":"53.2176","DECAY_DATE":null,"REF_FRAME":"TEME","RA_OF_ASC_NODE":"229.9019","GP_ID":"213407455","NORAD_CAT_ID":"53853","RCS_SIZE":null,"EPHEMERIS_TYPE":"0"},{"SITE":"AFETR","PERIAPSIS":"303.715","PERIOD":"90.840","ARG_OF_PERICENTER":"54.1546","MEAN_ELEMENT_THEORY":"SGP4","CENTER_NAME":"EARTH","MEAN_ANOMALY":"345.9240","EPOCH":"2022-09-24T22:00:00.999936","TLE_LINE1":"1 53854U 22114AN  22267.91667824 -.01159753  00000-0 -53520-2 0  9997","OBJECT_NAME":"STARLINK-4800","LAUNCH_DATE":"2022-09-19","MEAN_MOTION":"15.85204267","OBJECT_TYPE":"PAYLOAD","BSTAR":"-0.00535200000000","CLASSIFICATION_TYPE":"U","REV_AT_EPOCH":"130","MEAN_MOTION_DOT":"-0.01159753","ECCENTRICITY":"0.00179810","FILE":"3582616","TLE_LINE2":"2 53854  53.2176 229.8986 0017981  54.1546 345.9240 15.85204267  1307","SEMIMAJOR_AXIS":"6693.887","TIME_SYSTEM":"UTC","DECAY_DATE":null,"REF_FRAME":"TEME","MEAN_MOTION_DDOT":"0.0000000000000","APOAPSIS":"327.788","OBJECT_ID":"2022-114AN","ELEMENT_SET_NO":"999","COUNTRY_CODE":"US","INCLINATION":"53.2176","GP_ID":"213408021","NORAD_CAT_ID":"53854","RCS_SIZE":null,"EPHEMERIS_TYPE":"0","RA_OF_ASC_NODE":"229.8986"},{"RA_OF_ASC_NODE":"229.9013","EPHEMERIS_TYPE":"0","RCS_SIZE":null,"GP_ID":"213407619","NORAD_CAT_ID":"53855","COUNTRY_CODE":"US","INCLINATION":"53.2176","APOAPSIS":"327.846","MEAN_MOTION_DDOT":"0.0000000000000","OBJECT_ID":"2022-114AP","ELEMENT_SET_NO":"999","DECAY_DATE":null,"REF_FRAME":"TEME","TIME_SYSTEM":"UTC","SEMIMAJOR_AXIS":"6694.131","ECCENTRICITY":"0.00177020","TLE_LINE2":"2 53855  53.2176 229.9013 0017702  53.6536 344.8891 15.85117367  1308","FILE":"3582616","MEAN_MOTION_DOT":"-0.01160125","REV_AT_EPOCH":"130","OBJECT_TYPE":"PAYLOAD","MEAN_MOTION":"15.85117367","CLASSIFICATION_TYPE":"U","BSTAR":"-0.00537980000000","OBJECT_NAME":"STARLINK-4703","EPOCH":"2022-09-24T22:00:00.999936","TLE_LINE1":"1 53855U 22114AP  22267.91667824 -.01160125  00000-0 -53798-2 0  9990","LAUNCH_DATE":"2022-09-19","PERIAPSIS":"304.146","PERIOD":"90.845","ARG_OF_PERICENTER":"53.6536","CENTER_NAME":"EARTH","MEAN_ANOMALY":"344.8891","MEAN_ELEMENT_THEORY":"SGP4","SITE":"AFETR"},{"INCLINATION":"53.2176","COUNTRY_CODE":"US","OBJECT_ID":"2022-114AQ","ELEMENT_SET_NO":"999","MEAN_MOTION_DDOT":"0.0000000000000","APOAPSIS":"328.420","DECAY_DATE":null,"REF_FRAME":"TEME","RA_OF_ASC_NODE":"229.8954","EPHEMERIS_TYPE":"0","RCS_SIZE":null,"NORAD_CAT_ID":"53856","GP_ID":"213408185","CLASSIFICATION_TYPE":"U","BSTAR":"-0.00531390000000","OBJECT_TYPE":"PAYLOAD","MEAN_MOTION":"15.85289566","LAUNCH_DATE":"2022-09-19","OBJECT_NAME":"STARLINK-4795","TLE_LINE1":"1 53856U 22114AQ  22267.91667824 -.01159422  00000-0 -53139-2 0  9998","EPOCH":"2022-09-24T22:00:00.999936","PERIOD":"90.835","CENTER_NAME":"EARTH","ARG_OF_PERICENTER":"54.6843","MEAN_ANOMALY":"346.9416","MEAN_ELEMENT_THEORY":"SGP4","PERIAPSIS":"302.603","SITE":"AFETR","TIME_SYSTEM":"UTC","SEMIMAJOR_AXIS":"6693.647","TLE_LINE2":"2 53856  53.2176 229.8954 0019284  54.6843 346.9416 15.85289566  1308","FILE":"3582616","ECCENTRICITY":"0.00192840","MEAN_MOTION_DOT":"-0.01159422","REV_AT_EPOCH":"130"}];
